,title,streetaddress,localaddress,phone,email
0,"BALTIJOS OPENA, UAB",Austėjos g. 4,"NAUJASODŽIŲ VS., AVIŽIENIŲ SEN., VILNIAUS R.",+370 65271666,opena@baltijosopena.eu
1,"BALTIJOS PREKYBA, UAB",Vaduvos g. 2A,VILNIUS,+370 67260550,info@baltijos-prekyba.lt
2,"BARDUVA, UAB",Liepkalnio g. 61,VILNIUS,+370 52310770,vilnius@barduva.lt
3,"BETA SISTEMOS, UAB",Molėtų pl. 47,VILNIUS,+370 68716666,valdas.jonaitis@aptverimas.lt
4,Betafence atstovas Baltijos šalyse,,VILNIUS,+370 69888768,info@betafence.lt
5,"DARMONTA, UAB",,"GERVĖNUPIO K., SAMYLŲ SEN., KAUNO R.",+370 65768851,darmonta@gmail.com
6,"DARUS, UAB",Jaunimo a. 22,KAUNAS,+370 37777141,info@darus.lt
7,"DEFENSAS, UAB",Metalo g. 8,VILNIUS,+370 61112727,info@defensas.lt
8,"EGLARTA, UAB",Sėmenos g. 52B,"PATAMULŠĖLIO K., ROKŲ SEN., KAUNO R.",+370 65198513,gtvoros@gmail.com
9,"EKSPERTAI, UAB",Naugarduko g. 97,VILNIUS,+370 60677732,info@ekspert.lt
10,"ESA GROUP, UAB",Vaškų g. 4,KAUNAS,+370 65093222,info@esa.lt
11,"EUROLAIKAS, UAB",Laisvės pr. 121 -65,VILNIUS,+370 52463333,info@eurolaikas.lt
12,"EXPERTDOOR, UAB",Santaikos g. 31A,ALYTUS,+370 31551172,info@expertdoor.lt
13,"EXPOLITA, UAB",Ligoninės g. 8,ALYTUS,+370 60000374,info@expolita.lt
14,"GAJAUSTA, UAB",K. Petrausko g. 8 -1,KAUNAS,+370 37328114,info@gajausta.lt
15,"GARAŽŲ VARTAI, UAB",Paliūniškio g. 2A,PANEVĖŽYS,+370 68627578,info@vartaigarazui.lt
16,"GIRONA, UAB",Demokratų g. 53,KAUNAS,+370 68625800,info@girona.lt
17,"HORMANN BALTIC, UAB",2,"BUDNINKŲ K., MAIŠIAGALOS SEN., VILNIAUS R.",+370 80000017,info@hormann.lt
18,"IDOMUS, UAB",Chemijos g. 27,KAUNAS,+370 37308900,info@idomus.lt
19,"ISVETA IR KO, UAB filialas",Kauno g. 34,VILNIUS,+370 52333484,info@isveta.lt
20,"ISVETA IR KO, UAB filialas",Savanorių pr. 196,KAUNAS,+370 37333300,info@isveta.lt
21,"BALTIJOS OPENA, UAB",Austėjos g. 4,"NAUJASODŽIŲ VS., AVIŽIENIŲ SEN., VILNIAUS R.",+370 65271666,opena@baltijosopena.eu
22,"ISVETA IR KO, UAB filialas",Taikos pr. 20,KLAIPĖDA,+370 46382211,klaipeda@isveta.lt
23,"ISVETA IR KO, UAB filialas",Tilžės g. 225,ŠIAULIAI,+370 60023287,klaipeda@isveta.lt
24,J. Jurgaičio individuali veikla,Kniaudiškių g. 99A,PANEVĖŽYS,+370 69978469,garazuvartai@inbox.lt
25,"KIEMO PROJEKTAI, UAB",Europos pr. 122,KAUNAS,+370 68328017,kaunas@kiemoprojektai.lt
26,"KOKYBA, MB",Vaduvos g. 12 -23,VILNIUS,+370 64592882,vartuautomatika.net@gmail.com
27,"KREIVAS KAMINĖLIS, kalvių gaminiai",,"RAINIŲ K., VIEŠVĖNŲ SEN., TELŠIŲ R.",+370 65784327,kreivaskaminelis@super.lt
28,"LAIKSEKA, UAB",Vytauto g. 20,ŠIAULIAI,+370 41421656,laikseka@laikseka.lt
29,"LOREKSTA, UAB",Šaulių g. 27A,ŠAKIAI,+370 65758525,loreksta@gmail.com
30,"MASTERIS LT, UAB",Žiburių g. 19,GARGŽDAI,+370 64742537,a.andrejauskas@gmail.com
31,"MEDIENOS GAMINIAI, PREKYBA PJAUTINE MEDIENA, UAB VAIDO MEDIS",Sodų g. 49,"ZINIŪNŲ K., JONIŠKIO SEN., JONIŠKIO R.",+370 60682658,vaidomedis@gmail.com
32,"METALIKA, UAB",Nemuno g. 51,PANEVĖŽYS,+370 65505745,info@metalika.lt
33,"ML VOKIŠKI VARTAI, UAB",Pramonės pr. 15A,KAUNAS,+370 37407706,marijus@vokiskivartai.lt
34,"MONTESTA, UAB",Likiškėlių g. 106A,ALYTUS,+370 68683650,info@montesta.lt
35,"MONTVILA, UAB",Švitrigailos g. 7 /Vivulskio g. 16,VILNIUS,+370 69590602,info@montvila.lt
36,"NT GRUPĖ, UAB",Elektrėnų g. 1E,KAUNAS,+370 60020229,vartaidurys@gmail.com
37,"OMETA, UAB filialas",Gedvydžių g. 13,VILNIUS,+370 52761885,vilnius@ometa.lt
38,"Plieno magija, UAB",Pagubės Sodų 8-oji g. 6,VILNIUS,+370 67701500,info@givistatybosprojektai.lt
39,"PROLOGIKA, UAB",Ateities g. 10A,VILNIUS,+370 52725532,info@prologika.lt
40,"PROMES LT, UAB",Dubijos g. 20,ŠIAULIAI,+370 67202747,erikas@promes.lt
41,"RIKMONTA, UAB",Kryžiokų Sodų 6-oji g. 63,VILNIUS,+370 65202835,info@rikmonta.lt
42,"BALTIJOS OPENA, UAB",Austėjos g. 4,"NAUJASODŽIŲ VS., AVIŽIENIŲ SEN., VILNIAUS R.",+370 65271666,opena@baltijosopena.eu
43,"ROMODA, UAB",Gedimino g. 22,MARIJAMPOLĖ,+370 34354944,uab.romoda@gmail.com
44,"RYTERNA GROUP, UAB",Inovacijų g. 5,"BIRULIŠKIŲ K., KARMĖLAVOS SEN., KAUNO R.",+370 37490990,ryterna@ryterna.com
45,"RYTERNA LT, UAB",Savanorių pr. 404D,KAUNAS,+370 37338388,pardavimai@ryterna.lt
46,"RYTERNA, UAB",Savanorių pr. 404D,KAUNAS,+370 37338388,pardavimai@ryterna.lt
47,"SAUGUMAS LT, UAB",Dvaro g. 98,ŠIAULIAI,+370 60200533,uab.saugumas@gmail.com
48,"SHTORM, UAB",Budnykų g. 18,"MAIŠIAGALA, VILNIAUS R.",+370 60853905,info@shtorm.lt
49,"SIMARA, UAB",Vasario 16-osios g. 6,MARIJAMPOLĖ,+370 34394100,info@simara.lt
50,"SIP PREKYBA, UAB",Naujoji Uosto g. 10A -1,KLAIPĖDA,+370 67109876,sipprekyba@gmail.com
51,"SKAITMENINĖ AKIS, UAB",Tilžės g. 24A -26,ŠIAULIAI,+370 69598880,info@sistemos.org
52,"STACHAS IR KO, UAB",Pašilaičių g. 5 -77,VILNIUS,+370 61472369,stachas@dtiltas.lt
53,"STATOMETA, UAB",Apaščios g. 10B,KAUNAS,+370 60394443,info.statom@gmail.com
54,"TERMOLIUKSAS, UAB",Ozo g. 20,VILNIUS,+370 52404351,info@termoliuksas.lt
55,"Tvorlitus, UAB",Kopų g. 16,KAUNAS,+370 37373739,info@tvoros-vartai.lt
56,"UNIVEGA, UAB",Sąnašos g. 38,KAUNAS,+370 69800805,univega@gmail.com
57,"UTMETA, UAB",,"ANTALGĖS K., LELIŪNŲ SEN., UTENOS R.",+370 69870747,utmetos@gmail.com
58,"VADVILSA, UAB",Vytenio g. 29,VILNIUS,+370 69944993,vadvilsa@takas.lt
59,"VAKARŲ VARTAI, MB",Vilniaus g. 29 -1,"SALANTAI, KRETINGOS R.",+370 60333191,vakaru.vartai@gmail.com
60,"VARESA, UAB",Šilutės pl. 51,KLAIPĖDA,+370 46241624,info@varesa.lt
61,"VARSTA, UAB",Viršupio g. 5,VILNIUS,+370 60114883,virazgu@gmail.com
62,"VARTAI IR TVOROS, UAB",Raudondvario pl. 150,KAUNAS,+370 68755182,vartaitvoros@gmail.com
63,"BALTIJOS OPENA, UAB",Austėjos g. 4,"NAUJASODŽIŲ VS., AVIŽIENIŲ SEN., VILNIAUS R.",+370 65271666,opena@baltijosopena.eu
64,"VARTAI JUMS, UAB",J. Janonio g. 6,PANEVĖŽYS,+370 67643419,vartaijums@gmail.com
65,"VARTONAS, UAB Klaipėdos filialas",,KLAIPĖDA,+370 69992268,klaipeda@vartonas.llt
66,"VARTŲ REMONTAS, individuali veikla",Šeimyniškių g. 40,VILNIUS,+370 69080037,kulibinas@gmail.com
67,"VARTŲ ROJUS, individuali veikla",Tujų g. 15,VILNIUS,+370 68500363,info@varturojus.lt
68,"VARTŲ SERVISO TARNYBA, UAB",Baltų pr. 99 -34,KAUNAS,+370 68548000,info@varturemontas.lt
69,"VARTŲ SISTEMOS LT, UAB",Mokyklos g. 21,"BUKIŠKĖS, AVIŽIENIŲ SEN., VILNIAUS R.",+370 68337553,info@vartusistemos.com
70,"VARTŲ TECHNIKA, UAB",Rolando Jankausko g. 6,VILNIUS,+370 52402303,vilnius@vartutechnika.lt
71,"VESTORA, UAB",Architektų g. 56 -101,VILNIUS,+370 63399990,info@vestora.lt
72,"VGJ BALTIC, UAB filialas",Daubėnų g. 7,VILNIUS,+370 61251764,info@vestora.lt
73,"VOKIŠKI VARTAI, UAB",Pramonės pr. 15A,KAUNAS,+370 37407706,info@vokiskivartai.lt
74,"VOX BALTICA, UAB",Veiverių g. 9B -62,VILNIUS,+370 60063603,tvoros@post.com
